ORBCOMM FM37 [-]        
1 33064U 08031E   23325.58735620  .00001368  00000+0  22912-3 0  9995
2 33064  48.4402 180.7602 0005547  83.8902 300.0310 14.75436573829231
ORBCOMM FM40 [-]        
1 33065U 08031F   23325.34569852  .00001406  00000+0  22900-3 0  9992
2 33065  48.4426 172.7877 0006898  91.3956  78.9711 14.76535065829217
VESSELSAT 1 [-]         
1 37840U 11058C   23325.37609740  .00000389  00000+0  68036-4 0  9994
2 37840  19.9633 325.2373 0013685 356.8860   3.1458 14.11084895625150
ORBCOMM FM109 [+]       
1 40086U 14040A   23324.92259357  .00000467  00000+0  14247-3 0  9990
2 40086  47.0033 203.8650 0001959 206.0294 154.0492 14.56097607497435
ORBCOMM FM107 [+]       
1 40087U 14040B   23325.36841283  .00000580  00000+0  16789-3 0  9994
2 40087  47.0050 202.7043 0001229 169.4422 190.6489 14.56107229497450
ORBCOMM FM106 [-]       
1 40088U 14040C   23325.53966340  .00001316  00000+0  26893-3 0  9991
2 40088  47.0621  67.5035 0019029 285.7801  74.0991 14.66251756499207
ORBCOMM FM111 [-]       
1 40089U 14040D   23325.35123831  .00002222  00000+0  31201-3 0  9998
2 40089  47.0060 349.2432 0033928 335.0804  24.8451 14.80406938505046
ORBCOMM FM104 [-]       
1 40090U 14040E   23325.44280559  .00000584  00000+0  17412-3 0  9998
2 40090  47.0055 229.3957 0016656 106.0873 254.1847 14.54641016497038
